[{"OBJECT_NAME":"ONEWEB-0259","OBJECT_ID":"2021-060L","EPOCH":"2026-05-25T05:21:01.191744","MEAN_MOTION":13.16593365,"ECCENTRICITY":0.0001842,"INCLINATION":87.9105,"RA_OF_ASC_NODE":233.3418,"ARG_OF_PERICENTER":103.582,"MEAN_ANOMALY":256.5516,"EPHEMERIS_TYPE":0,"CLASSIFICATION_TYPE":"U","NORAD_CAT_ID":48977,"ELEMENT_SET_NO":999,"REV_AT_EPOCH":23660,"BSTAR":0.0001182,"MEAN_MOTION_DOT":5.8e-07,"MEAN_MOTION_DDOT":0.0},{"OBJECT_NAME":"ONEWEB-0260","OBJECT_ID":"2021-060M","EPOCH":"2026-05-25T05:08:27.362976","MEAN_MOTION":13.16594172,"ECCENTRICITY":0.0002314,"INCLINATION":87.91,"RA_OF_ASC_NODE":233.3461,"ARG_OF_PERICENTER":93.1849,"MEAN_ANOMALY":266.9547,"EPHEMERIS_TYPE":0,"CLASSIFICATION_TYPE":"U","NORAD_CAT_ID":48978,"ELEMENT_SET_NO":999,"REV_AT_EPOCH":23658,"BSTAR":-0.0005323799999999999,"MEAN_MOTION_DOT":-1.91e-06,"MEAN_MOTION_DDOT":0.0},{"OBJECT_NAME":"ONEWEB-0261","OBJECT_ID":"2021-060N","EPOCH":"2026-05-25T04:25:09.571584","MEAN_MOTION":13.16595168,"ECCENTRICITY":0.0001795,"INCLINATION":87.9103,"RA_OF_ASC_NODE":233.3513,"ARG_OF_PERICENTER":91.6772,"MEAN_ANOMALY":268.4565,"EPHEMERIS_TYPE":0,"CLASSIFICATION_TYPE":"U","NORAD_CAT_ID":48979,"ELEMENT_SET_NO":999,"REV_AT_EPOCH":23663,"BSTAR":-2.9494e-06,"MEAN_MOTION_DOT":1.2e-07,"MEAN_MOTION_DDOT":0.0},{"OBJECT_NAME":"ONEWEB-0262","OBJECT_ID":"2021-060P","EPOCH":"2026-05-24T15:10:36.567552","MEAN_MOTION":13.16593503,"ECCENTRICITY":0.0001751,"INCLINATION":87.9107,"RA_OF_ASC_NODE":233.4467,"ARG_OF_PERICENTER":105.5055,"MEAN_ANOMALY":254.6269,"EPHEMERIS_TYPE":0,"CLASSIFICATION_TYPE":"U","NORAD_CAT_ID":48980,"ELEMENT_SET_NO":999,"REV_AT_EPOCH":23652,"BSTAR":0.00019232,"MEAN_MOTION_DOT":8.6e-07,"MEAN_MOTION_DDOT":0.0},{"OBJECT_NAME":"ONEWEB-0263","OBJECT_ID":"2021-060Q","EPOCH":"2026-05-24T15:56:12.423552","MEAN_MOTION":13.16593323,"ECCENTRICITY":0.0001715,"INCLINATION":87.9105,"RA_OF_ASC_NODE":233.4515,"ARG_OF_PERICENTER":94.8433,"MEAN_ANOMALY":265.2893,"EPHEMERIS_TYPE":0,"CLASSIFICATION_TYPE":"U","NORAD_CAT_ID":48981,"ELEMENT_SET_NO":999,"REV_AT_EPOCH":23649,"BSTAR":-0.00022511000000000002,"MEAN_MOTION_DOT":-7.3e-07,"MEAN_MOTION_DDOT":0.0},{"OBJECT_NAME":"ONEWEB-0264","OBJECT_ID":"2021-060R","EPOCH":"2026-05-25T03:46:24.424896","MEAN_MOTION":13.16593121,"ECCENTRICITY":0.0001992,"INCLINATION":87.9105,"RA_OF_ASC_NODE":233.3571,"ARG_OF_PERICENTER":93.2652,"MEAN_ANOMALY":266.8707,"EPHEMERIS_TYPE":0,"CLASSIFICATION_TYPE":"U","NORAD_CAT_ID":48982,"ELEMENT_SET_NO":999,"REV_AT_EPOCH":23656,"BSTAR":0.00027625,"MEAN_MOTION_DOT":1.18e-06,"MEAN_MOTION_DDOT":0.0},{"OBJECT_NAME":"ONEWEB-0266","OBJECT_ID":"2021-060T","EPOCH":"2026-05-25T04:17:09.916800","MEAN_MOTION":13.16593088,"ECCENTRICITY":0.000203,"INCLINATION":87.9106,"RA_OF_ASC_NODE":233.3428,"ARG_OF_PERICENTER":102.2468,"MEAN_ANOMALY":257.889,"EPHEMERIS_TYPE":0,"CLASSIFICATION_TYPE":"U","NORAD_CAT_ID":48984,"ELEMENT_SET_NO":999,"REV_AT_EPOCH":23655,"BSTAR":0.00011942,"MEAN_MOTION_DOT":5.8e-07,"MEAN_MOTION_DDOT":0.0},{"OBJECT_NAME":"ONEWEB-0267","OBJECT_ID":"2021-060U","EPOCH":"2026-05-25T04:33:08.161056","MEAN_MOTION":13.165933,"ECCENTRICITY":0.0001873,"INCLINATION":87.9106,"RA_OF_ASC_NODE":233.337,"ARG_OF_PERICENTER":94.7739,"MEAN_ANOMALY":265.3606,"EPHEMERIS_TYPE":0,"CLASSIFICATION_TYPE":"U","NORAD_CAT_ID":48985,"ELEMENT_SET_NO":999,"REV_AT_EPOCH":23656,"BSTAR":1.6817e-05,"MEAN_MOTION_DOT":1.9e-07,"MEAN_MOTION_DDOT":0.0},{"OBJECT_NAME":"ONEWEB-0268","OBJECT_ID":"2021-060V","EPOCH":"2026-05-25T00:08:40.903008","MEAN_MOTION":13.16594403,"ECCENTRICITY":0.0002117,"INCLINATION":87.9108,"RA_OF_ASC_NODE":233.3835,"ARG_OF_PERICENTER":97.4431,"MEAN_ANOMALY":262.6941,"EPHEMERIS_TYPE":0,"CLASSIFICATION_TYPE":"U","NORAD_CAT_ID":48986,"ELEMENT_SET_NO":999,"REV_AT_EPOCH":23680,"BSTAR":0.00011382,"MEAN_MOTION_DOT":5.6e-07,"MEAN_MOTION_DDOT":0.0},{"OBJECT_NAME":"ONEWEB-0269","OBJECT_ID":"2021-060W","EPOCH":"2026-05-25T05:09:36.781056","MEAN_MOTION":13.16593939,"ECCENTRICITY":0.0002223,"INCLINATION":87.9093,"RA_OF_ASC_NODE":233.3469,"ARG_OF_PERICENTER":100.6456,"MEAN_ANOMALY":259.4925,"EPHEMERIS_TYPE":0,"CLASSIFICATION_TYPE":"U","NORAD_CAT_ID":48987,"ELEMENT_SET_NO":999,"REV_AT_EPOCH":23660,"BSTAR":-0.00018375,"MEAN_MOTION_DOT":-5.7e-07,"MEAN_MOTION_DDOT":0.0},{"OBJECT_NAME":"ONEWEB-0270","OBJECT_ID":"2021-060X","EPOCH":"2026-05-25T00:06:23.367168","MEAN_MOTION":13.16592944,"ECCENTRICITY":0.0001618,"INCLINATION":87.9109,"RA_OF_ASC_NODE":233.3856,"ARG_OF_PERICENTER":99.083,"MEAN_ANOMALY":261.0484,"EPHEMERIS_TYPE":0,"CLASSIFICATION_TYPE":"U","NORAD_CAT_ID":48988,"ELEMENT_SET_NO":999,"REV_AT_EPOCH":23661,"BSTAR":0.00012625,"MEAN_MOTION_DOT":6.1e-07,"MEAN_MOTION_DDOT":0.0},{"OBJECT_NAME":"ONEWEB-0271","OBJECT_ID":"2021-060Y","EPOCH":"2026-05-24T23:48:08.788032","MEAN_MOTION":13.16593163,"ECCENTRICITY":0.0001778,"INCLINATION":87.9105,"RA_OF_ASC_NODE":233.3783,"ARG_OF_PERICENTER":95.7889,"MEAN_ANOMALY":264.3445,"EPHEMERIS_TYPE":0,"CLASSIFICATION_TYPE":"U","NORAD_CAT_ID":48989,"ELEMENT_SET_NO":999,"REV_AT_EPOCH":23661,"BSTAR":-3.3282000000000004e-05,"MEAN_MOTION_DOT":0.0,"MEAN_MOTION_DDOT":0.0},{"OBJECT_NAME":"ONEWEB-0272","OBJECT_ID":"2021-060Z","EPOCH":"2026-05-25T03:58:56.464320","MEAN_MOTION":13.16595307,"ECCENTRICITY":0.0002077,"INCLINATION":87.9108,"RA_OF_ASC_NODE":233.3555,"ARG_OF_PERICENTER":91.7487,"MEAN_ANOMALY":268.3881,"EPHEMERIS_TYPE":0,"CLASSIFICATION_TYPE":"U","NORAD_CAT_ID":48990,"ELEMENT_SET_NO":999,"REV_AT_EPOCH":23658,"BSTAR":0.00015882,"MEAN_MOTION_DOT":7.4e-07,"MEAN_MOTION_DDOT":0.0},{"OBJECT_NAME":"ONEWEB-0273","OBJECT_ID":"2021-060AA","EPOCH":"2026-05-25T04:30:51.554016","MEAN_MOTION":13.1659373,"ECCENTRICITY":0.0001869,"INCLINATION":87.9108,"RA_OF_ASC_NODE":233.3497,"ARG_OF_PERICENTER":99.2786,"MEAN_ANOMALY":260.8557,"EPHEMERIS_TYPE":0,"CLASSIFICATION_TYPE":"U","NORAD_CAT_ID":48991,"ELEMENT_SET_NO":999,"REV_AT_EPOCH":23656,"BSTAR":-2.0604e-05,"MEAN_MOTION_DOT":5e-08,"MEAN_MOTION_DDOT":0.0},{"OBJECT_NAME":"ONEWEB-0274","OBJECT_ID":"2021-060AB","EPOCH":"2026-05-25T05:07:19.239168","MEAN_MOTION":13.16595508,"ECCENTRICITY":0.0002194,"INCLINATION":87.9096,"RA_OF_ASC_NODE":233.3496,"ARG_OF_PERICENTER":92.9928,"MEAN_ANOMALY":267.1454,"EPHEMERIS_TYPE":0,"CLASSIFICATION_TYPE":"U","NORAD_CAT_ID":48992,"ELEMENT_SET_NO":999,"REV_AT_EPOCH":23660,"BSTAR":2.5543e-05,"MEAN_MOTION_DOT":2.3e-07,"MEAN_MOTION_DDOT":0.0},{"OBJECT_NAME":"ONEWEB-0275","OBJECT_ID":"2021-060AC","EPOCH":"2026-05-25T04:51:22.463712","MEAN_MOTION":13.16593182,"ECCENTRICITY":0.0002006,"INCLINATION":87.9106,"RA_OF_ASC_NODE":233.3385,"ARG_OF_PERICENTER":97.1479,"MEAN_ANOMALY":262.988,"EPHEMERIS_TYPE":0,"CLASSIFICATION_TYPE":"U","NORAD_CAT_ID":48993,"ELEMENT_SET_NO":999,"REV_AT_EPOCH":23653,"BSTAR":6.1729e-05,"MEAN_MOTION_DOT":3.6e-07,"MEAN_MOTION_DDOT":0.0}]