ONEWEB-0259             
1 48977U 21060L   26145.22293046  .00000058  00000+0  11820-3 0  9997
2 48977  87.9105 233.3418 0001842 103.5820 256.5516 13.16593365236604
ONEWEB-0260             
1 48978U 21060M   26145.21420559 -.00000191  00000+0 -53238-3 0  9997
2 48978  87.9100 233.3461 0002314  93.1849 266.9547 13.16594172236581
ONEWEB-0261             
1 48979U 21060N   26145.18413856  .00000012  00000+0 -29494-5 0  9996
2 48979  87.9103 233.3513 0001795  91.6772 268.4565 13.16595168236632
ONEWEB-0262             
1 48980U 21060P   26144.63236768  .00000086  00000+0  19232-3 0  9999
2 48980  87.9107 233.4467 0001751 105.5055 254.6269 13.16593503236525
ONEWEB-0263             
1 48981U 21060Q   26144.66403268 -.00000073  00000+0 -22511-3 0  9996
2 48981  87.9105 233.4515 0001715  94.8433 265.2893 13.16593323236495
ONEWEB-0264             
1 48982U 21060R   26145.15722714  .00000118  00000+0  27625-3 0  9991
2 48982  87.9105 233.3571 0001992  93.2652 266.8707 13.16593121236565
ONEWEB-0266             
1 48984U 21060T   26145.17858700  .00000058  00000+0  11942-3 0  9998
2 48984  87.9106 233.3428 0002030 102.2468 257.8890 13.16593088236553
ONEWEB-0267             
1 48985U 21060U   26145.18967779  .00000019  00000+0  16817-4 0  9991
2 48985  87.9106 233.3370 0001873  94.7739 265.3606 13.16593300236567
ONEWEB-0268             
1 48986U 21060V   26145.00602897  .00000056  00000+0  11382-3 0  9992
2 48986  87.9108 233.3835 0002117  97.4431 262.6941 13.16594403236801
ONEWEB-0269             
1 48987U 21060W   26145.21500904 -.00000057  00000+0 -18375-3 0  9994
2 48987  87.9093 233.3469 0002223 100.6456 259.4925 13.16593939236607
ONEWEB-0270             
1 48988U 21060X   26145.00443712  .00000061  00000+0  12625-3 0  9990
2 48988  87.9109 233.3856 0001618  99.0830 261.0484 13.16592944236615
ONEWEB-0271             
1 48989U 21060Y   26144.99176838  .00000000  00000+0 -33282-4 0  9997
2 48989  87.9105 233.3783 0001778  95.7889 264.3445 13.16593163236612
ONEWEB-0272             
1 48990U 21060Z   26145.16593130  .00000074  00000+0  15882-3 0  9992
2 48990  87.9108 233.3555 0002077  91.7487 268.3881 13.16595307236583
ONEWEB-0273             
1 48991U 21060AA  26145.18809669  .00000005  00000+0 -20604-4 0  9996
2 48991  87.9108 233.3497 0001869  99.2786 260.8557 13.16593730236565
ONEWEB-0274             
1 48992U 21060AB  26145.21341712  .00000023  00000+0  25543-4 0  9997
2 48992  87.9096 233.3496 0002194  92.9928 267.1454 13.16595508236607
ONEWEB-0275             
1 48993U 21060AC  26145.20234333  .00000036  00000+0  61729-4 0  9997
2 48993  87.9106 233.3385 0002006  97.1479 262.9880 13.16593182236531
